start=new Date('2022-12-09T00:00:00.000Z').valueOf();
sats=[{"NORAD_CAT_ID":"48475","OBJECT_TYPE":"PAYLOAD","LAUNCH_DATE":"2021-05-09","EPHEMERIS_TYPE":"0","PERIAPSIS":"545.774","EPOCH":"2022-12-08T15:40:40.511424","MEAN_ANOMALY":"299.5096","MEAN_ELEMENT_THEORY":"SGP4","PERIOD":"95.591","RA_OF_ASC_NODE":"120.4429","SEMIMAJOR_AXIS":"6925.303","COUNTRY_CODE":"US","INCLINATION":"53.0547","CENTER_NAME":"EARTH","GP_ID":"219808139","MEAN_MOTION_DOT":"0.00001013","REF_FRAME":"TEME","MEAN_MOTION_DDOT":"0.0000000000000","OBJECT_ID":"2021-040AZ","SITE":"AFETR","FILE":"3684925","OBJECT_NAME":"STARLINK-2619","ELEMENT_SET_NO":"999","ECCENTRICITY":"0.00020130","DECAY_DATE":null,"CLASSIFICATION_TYPE":"U","MEAN_MOTION":"15.06414878","REV_AT_EPOCH":"8757","TLE_LINE1":"1 48475U 21040AZ  22342.65324666  .00001013  00000-0  86851-4 0  9993","RCS_SIZE":"LARGE","TLE_LINE2":"2 48475  53.0547 120.4429 0002013  60.6094 299.5096 15.06414878 87578","BSTAR":"0.00008685100000","TIME_SYSTEM":"UTC","APOAPSIS":"548.562","ARG_OF_PERICENTER":"60.6094"},{"MEAN_MOTION_DOT":"0.00002025","REF_FRAME":"TEME","GP_ID":"219806887","PERIOD":"95.591","RA_OF_ASC_NODE":"120.3396","MEAN_ELEMENT_THEORY":"SGP4","INCLINATION":"53.0544","SEMIMAJOR_AXIS":"6925.300","COUNTRY_CODE":"US","CENTER_NAME":"EARTH","NORAD_CAT_ID":"48476","OBJECT_TYPE":"PAYLOAD","EPHEMERIS_TYPE":"0","LAUNCH_DATE":"2021-05-09","MEAN_ANOMALY":"293.8732","PERIAPSIS":"546.096","EPOCH":"2022-12-08T16:12:31.921344","TLE_LINE2":"2 48476  53.0544 120.3396 0001544  66.2419 293.8732 15.06415783 87579","RCS_SIZE":"LARGE","BSTAR":"0.00015472000000","TIME_SYSTEM":"UTC","ARG_OF_PERICENTER":"66.2419","APOAPSIS":"548.234","DECAY_DATE":null,"MEAN_MOTION":"15.06415783","CLASSIFICATION_TYPE":"U","REV_AT_EPOCH":"8757","TLE_LINE1":"1 48476U 21040BA  22342.67536946  .00002025  00000-0  15472-3 0  9996","FILE":"3684925","OBJECT_NAME":"STARLINK-2723","ECCENTRICITY":"0.00015440","ELEMENT_SET_NO":"999","MEAN_MOTION_DDOT":"0.0000000000000","OBJECT_ID":"2021-040BA","SITE":"AFETR"},{"GP_ID":"219807638","REF_FRAME":"TEME","MEAN_MOTION_DOT":"0.00000375","MEAN_ANOMALY":"298.5505","PERIAPSIS":"545.222","EPOCH":"2022-12-08T15:51:18.174528","NORAD_CAT_ID":"48478","OBJECT_TYPE":"PAYLOAD","LAUNCH_DATE":"2021-05-09","EPHEMERIS_TYPE":"0","CENTER_NAME":"EARTH","MEAN_ELEMENT_THEORY":"SGP4","RA_OF_ASC_NODE":"120.4023","PERIOD":"95.592","SEMIMAJOR_AXIS":"6925.341","COUNTRY_CODE":"US","INCLINATION":"53.0553","TLE_LINE1":"1 48478U 21040BC  22342.66062702  .00000375  00000-0  44089-4 0  9994","CLASSIFICATION_TYPE":"U","DECAY_DATE":null,"MEAN_MOTION":"15.06402523","REV_AT_EPOCH":"8757","TIME_SYSTEM":"UTC","APOAPSIS":"549.190","ARG_OF_PERICENTER":"61.5773","TLE_LINE2":"2 48478  53.0553 120.4023 0002865  61.5773 298.5505 15.06402523 87575","RCS_SIZE":"LARGE","BSTAR":"0.00004408900000","SITE":"AFETR","MEAN_MOTION_DDOT":"0.0000000000000","OBJECT_ID":"2021-040BC","OBJECT_NAME":"STARLINK-2728","ELEMENT_SET_NO":"999","ECCENTRICITY":"0.00028650","FILE":"3684925"},{"REF_FRAME":"TEME","MEAN_MOTION_DOT":"-0.00001905","GP_ID":"219807889","CENTER_NAME":"EARTH","INCLINATION":"53.0544","SEMIMAJOR_AXIS":"6925.466","COUNTRY_CODE":"US","PERIOD":"95.595","RA_OF_ASC_NODE":"120.4259","MEAN_ELEMENT_THEORY":"SGP4","PERIAPSIS":"545.767","MEAN_ANOMALY":"41.0669","EPOCH":"2022-12-08T15:46:02.231328","EPHEMERIS_TYPE":"0","LAUNCH_DATE":"2021-05-09","OBJECT_TYPE":"PAYLOAD","NORAD_CAT_ID":"48479","ARG_OF_PERICENTER":"319.0150","APOAPSIS":"548.896","TIME_SYSTEM":"UTC","BSTAR":"-0.00010914000000","RCS_SIZE":"LARGE","TLE_LINE2":"2 48479  53.0544 120.4259 0002259 319.0150  41.0669 15.06361627 87575","TLE_LINE1":"1 48479U 21040BD  22342.65697027 -.00001905  00000-0 -10914-3 0  9999","REV_AT_EPOCH":"8757","DECAY_DATE":null,"CLASSIFICATION_TYPE":"U","MEAN_MOTION":"15.06361627","ECCENTRICITY":"0.00022590","ELEMENT_SET_NO":"999","OBJECT_NAME":"STARLINK-2755","FILE":"3684925","SITE":"AFETR","OBJECT_ID":"2021-040BD","MEAN_MOTION_DDOT":"0.0000000000000"},{"OBJECT_ID":"2021-040BE","MEAN_MOTION_DDOT":"0.0000000000000","SITE":"AFETR","FILE":"3684614","ECCENTRICITY":"0.00029000","ELEMENT_SET_NO":"999","OBJECT_NAME":"STARLINK-2690","REV_AT_EPOCH":"8740","DECAY_DATE":null,"MEAN_MOTION":"15.06410024","CLASSIFICATION_TYPE":"U","TLE_LINE1":"1 48480U 21040BE  22342.47077920 -.00000798  00000-0 -34618-4 0  9992","BSTAR":"-0.00003461800000","RCS_SIZE":"LARGE","TLE_LINE2":"2 48480  53.0558 131.2545 0002900  66.7105 293.4189 15.06410024 87407","ARG_OF_PERICENTER":"66.7105","APOAPSIS":"549.191","TIME_SYSTEM":"UTC","EPHEMERIS_TYPE":"0","LAUNCH_DATE":"2021-05-09","OBJECT_TYPE":"PAYLOAD","NORAD_CAT_ID":"48480","PERIAPSIS":"545.174","EPOCH":"2022-12-08T11:17:55.322880","MEAN_ANOMALY":"293.4189","INCLINATION":"53.0558","COUNTRY_CODE":"US","SEMIMAJOR_AXIS":"6925.318","PERIOD":"95.592","RA_OF_ASC_NODE":"131.2545","MEAN_ELEMENT_THEORY":"SGP4","CENTER_NAME":"EARTH","GP_ID":"219774454","MEAN_MOTION_DOT":"-0.00000798","REF_FRAME":"TEME"},{"RA_OF_ASC_NODE":"130.4599","PERIOD":"95.592","MEAN_ELEMENT_THEORY":"SGP4","INCLINATION":"53.0548","COUNTRY_CODE":"US","SEMIMAJOR_AXIS":"6925.339","CENTER_NAME":"EARTH","NORAD_CAT_ID":"48481","OBJECT_TYPE":"PAYLOAD","EPHEMERIS_TYPE":"0","LAUNCH_DATE":"2021-05-09","PERIAPSIS":"546.085","MEAN_ANOMALY":"296.2717","EPOCH":"2022-12-08T17:04:20.122464","MEAN_MOTION_DOT":"0.00001162","REF_FRAME":"TEME","GP_ID":"219807388","FILE":"3684925","OBJECT_NAME":"STARLINK-2706","ECCENTRICITY":"0.00016150","ELEMENT_SET_NO":"999","MEAN_MOTION_DDOT":"0.0000000000000","OBJECT_ID":"2021-040BF","SITE":"AFETR","TLE_LINE2":"2 48481  53.0548 130.4599 0001615  63.8438 296.2717 15.06403183 87435","RCS_SIZE":"LARGE","BSTAR":"0.00009685800000","TIME_SYSTEM":"UTC","ARG_OF_PERICENTER":"63.8438","APOAPSIS":"548.322","CLASSIFICATION_TYPE":"U","DECAY_DATE":null,"MEAN_MOTION":"15.06403183","REV_AT_EPOCH":"8743","TLE_LINE1":"1 48481U 21040BF  22342.71134401  .00001162  00000-0  96858-4 0  9996"},{"REF_FRAME":"TEME","MEAN_MOTION_DOT":"0.00001146","GP_ID":"219807138","CENTER_NAME":"EARTH","COUNTRY_CODE":"US","SEMIMAJOR_AXIS":"6925.315","INCLINATION":"53.0546","MEAN_ELEMENT_THEORY":"SGP4","RA_OF_ASC_NODE":"130.3326","PERIOD":"95.591","EPOCH":"2022-12-08T16:16:30.743040","PERIAPSIS":"546.105","MEAN_ANOMALY":"273.4182","LAUNCH_DATE":"2021-05-09","EPHEMERIS_TYPE":"0","OBJECT_TYPE":"PAYLOAD","NORAD_CAT_ID":"48482","APOAPSIS":"548.255","ARG_OF_PERICENTER":"86.6984","TIME_SYSTEM":"UTC","BSTAR":"0.00009582100000","RCS_SIZE":"LARGE","TLE_LINE2":"2 48482  53.0546 130.3326 0001552  86.6984 273.4182 15.06411048 87432","TLE_LINE1":"1 48482U 21040BG  22342.67813360  .00001146  00000-0  95821-4 0  9991","REV_AT_EPOCH":"8743","DECAY_DATE":null,"CLASSIFICATION_TYPE":"U","MEAN_MOTION":"15.06411048","ELEMENT_SET_NO":"999","ECCENTRICITY":"0.00015520","OBJECT_NAME":"STARLINK-2525","FILE":"3684925","SITE":"AFETR","OBJECT_ID":"2021-040BG","MEAN_MOTION_DDOT":"0.0000000000000"},{"SEMIMAJOR_AXIS":"6925.352","COUNTRY_CODE":"US","INCLINATION":"53.0555","MEAN_ELEMENT_THEORY":"SGP4","RA_OF_ASC_NODE":"130.3482","PERIOD":"95.592","CENTER_NAME":"EARTH","LAUNCH_DATE":"2021-05-09","EPHEMERIS_TYPE":"0","OBJECT_TYPE":"PAYLOAD","NORAD_CAT_ID":"48483","PERIAPSIS":"546.503","MEAN_ANOMALY":"317.9462","EPOCH":"2022-12-08T16:11:13.333632","MEAN_MOTION_DOT":"-0.00002938","REF_FRAME":"TEME","GP_ID":"219808390","FILE":"3684925","ELEMENT_SET_NO":"999","ECCENTRICITY":"0.00010300","OBJECT_NAME":"STARLINK-2531","OBJECT_ID":"2021-040BH","MEAN_MOTION_DDOT":"0.0000000000000","SITE":"AFETR","BSTAR":"-0.00017841000000","RCS_SIZE":"LARGE","TLE_LINE2":"2 48483  53.0555 130.3482 0001030  42.1606 317.9462 15.06399005 87438","APOAPSIS":"547.930","ARG_OF_PERICENTER":"42.1606","TIME_SYSTEM":"UTC","REV_AT_EPOCH":"8743","MEAN_MOTION":"15.06399005","DECAY_DATE":null,"CLASSIFICATION_TYPE":"U","TLE_LINE1":"1 48483U 21040BH  22342.67445988 -.00002938  00000-0 -17841-3 0  9996"},{"RA_OF_ASC_NODE":"131.8470","PERIOD":"95.592","MEAN_ELEMENT_THEORY":"SGP4","INCLINATION":"53.0546","COUNTRY_CODE":"US","SEMIMAJOR_AXIS":"6925.333","CENTER_NAME":"EARTH","OBJECT_TYPE":"PAYLOAD","NORAD_CAT_ID":"48484","EPHEMERIS_TYPE":"0","LAUNCH_DATE":"2021-05-09","MEAN_ANOMALY":"278.2484","PERIAPSIS":"546.185","EPOCH":"2022-12-08T10:05:01.856832","MEAN_MOTION_DOT":"0.00002700","REF_FRAME":"TEME","GP_ID":"219773954","FILE":"3684614","OBJECT_NAME":"STARLINK-2696","ECCENTRICITY":"0.00014630","ELEMENT_SET_NO":"999","MEAN_MOTION_DDOT":"0.0000000000000","OBJECT_ID":"2021-040BJ","SITE":"AFETR","TLE_LINE2":"2 48484  53.0546 131.8470 0001463  81.8671 278.2484 15.06405090 87394","RCS_SIZE":"LARGE","BSTAR":"0.00020008000000","TIME_SYSTEM":"UTC","ARG_OF_PERICENTER":"81.8671","APOAPSIS":"548.211","DECAY_DATE":null,"MEAN_MOTION":"15.06405090","CLASSIFICATION_TYPE":"U","REV_AT_EPOCH":"8739","TLE_LINE1":"1 48484U 21040BJ  22342.42016038  .00002700  00000-0  20008-3 0  9994"},{"COUNTRY_CODE":"US","SEMIMAJOR_AXIS":"6925.316","INCLINATION":"53.0559","MEAN_ELEMENT_THEORY":"SGP4","RA_OF_ASC_NODE":"130.3178","PERIOD":"95.591","CENTER_NAME":"EARTH","LAUNCH_DATE":"2021-05-09","EPHEMERIS_TYPE":"0","OBJECT_TYPE":"PAYLOAD","NORAD_CAT_ID":"48485","PERIAPSIS":"545.986","EPOCH":"2022-12-08T16:21:49.443264","MEAN_ANOMALY":"300.1424","MEAN_MOTION_DOT":"0.00001707","REF_FRAME":"TEME","GP_ID":"219806888","FILE":"3684925","ELEMENT_SET_NO":"999","ECCENTRICITY":"0.00017260","OBJECT_NAME":"STARLINK-2500","OBJECT_ID":"2021-040BK","MEAN_MOTION_DDOT":"0.0000000000000","SITE":"AFETR","BSTAR":"0.00013344000000","TLE_LINE2":"2 48485  53.0559 130.3178 0001726  59.9736 300.1424 15.06410522 87438","RCS_SIZE":"LARGE","APOAPSIS":"548.377","ARG_OF_PERICENTER":"59.9736","TIME_SYSTEM":"UTC","REV_AT_EPOCH":"8743","CLASSIFICATION_TYPE":"U","DECAY_DATE":null,"MEAN_MOTION":"15.06410522","TLE_LINE1":"1 48485U 21040BK  22342.68182226  .00001707  00000-0  13344-3 0  9997"}];
